{"type": "FeatureCollection", "features": [ {"type": "Feature", "properties": {"norad_id": 41836, "name": "HIMAWARI-9", "group": "weather", "lat": 0.013353053357080213, "lon": -153.2875670903939, "alt_km": 35784.27660460943, "timestamp": "2025-12-15T22:44:28.563336+00:00", "meta": {"OBJECT_NAME": "HIMAWARI-9", "OBJECT_ID": "2016-064A", "EPOCH": "2025-12-14T22:38:53.164032", "MEAN_MOTION": 1.00272988, "ECCENTRICITY": 0.00010766, "INCLINATION": 0.0419, "RA_OF_ASC_NODE": 96.9426, "ARG_OF_PERICENTER": 179.7054, "MEAN_ANOMALY": 287.6965, "EPHEMERIS_TYPE": 0, "CLASSIFICATION_TYPE": "U", "NORAD_CAT_ID": 41836, "ELEMENT_SET_NO": 999, "REV_AT_EPOCH": 3336, "BSTAR": 0, "MEAN_MOTION_DOT": -2.54e-06, "MEAN_MOTION_DDOT": 0}, "tle": {"line1": "1 41836U 16064A   25348.94367088 -.00000254  00000+0  00000+0 0  9996", "line2": "2 41836   0.0419  96.9426 0001076 179.7054 287.6965  1.00272988 33366"}}, "geometry": {"type": "Point", "coordinates": [-153.2875670903939, 0.013353053357080213]}}, {"type": "Feature", "properties": {"norad_id": 41866, "name": "GOES 16", "group": "weather", "lat": -0.050001896346179554, "lon": -38.69386474438717, "alt_km": 35779.05793261846, "timestamp": "2025-12-15T22:44:28.563350+00:00", "meta": {"OBJECT_NAME": "GOES 16", "OBJECT_ID": "2016-071A", "EPOCH": "2025-12-15T09:07:38.849664", "MEAN_MOTION": 1.00271768, "ECCENTRICITY": 0.00030959, "INCLINATION": 0.0697, "RA_OF_ASC_NODE": 103.4618, "ARG_OF_PERICENTER": 160.3423, "MEAN_ANOMALY": 212.717, "EPHEMERIS_TYPE": 0, "CLASSIFICATION_TYPE": "U", "NORAD_CAT_ID": 41866, "ELEMENT_SET_NO": 999, "REV_AT_EPOCH": 3326, "BSTAR": 0, "MEAN_MOTION_DOT": -7e-07, "MEAN_MOTION_DDOT": 0}, "tle": {"line1": "1 41866U 16071A   25349.38031076 -.00000070  00000+0  00000+0 0  9997", "line2": "2 41866   0.0697 103.4618 0003095 160.3423 212.7170  1.00271768 33264"}}, "geometry": {"type": "Point", "coordinates": [-38.69386474438717, -0.050001896346179554]}}, {"type": "Feature", "properties": {"norad_id": 41882, "name": "FENGYUN 4A", "group": "weather", "lat": 1.7608492503066453, "lon": -170.26749551716574, "alt_km": 35771.3113143595, "timestamp": "2025-12-15T22:44:28.563363+00:00", "meta": {"OBJECT_NAME": "FENGYUN 4A", "OBJECT_ID": "2016-077A", "EPOCH": "2025-12-15T07:07:44.180832", "MEAN_MOTION": 1.00268624, "ECCENTRICITY": 0.00046503, "INCLINATION": 1.8558, "RA_OF_ASC_NODE": 82.3675, "ARG_OF_PERICENTER": 144.9138, "MEAN_ANOMALY": 87.6651, "EPHEMERIS_TYPE": 0, "CLASSIFICATION_TYPE": "U", "NORAD_CAT_ID": 41882, "ELEMENT_SET_NO": 999, "REV_AT_EPOCH": 3308, "BSTAR": 0, "MEAN_MOTION_DOT": -3.37e-06, "MEAN_MOTION_DDOT": 0}, "tle": {"line1": "1 41882U 16077A   25349.29703913 -.00000337  00000+0  00000+0 0  9993", "line2": "2 41882   1.8558  82.3675 0004650 144.9138  87.6651  1.00268624 33084"}}, "geometry": {"type": "Point", "coordinates": [-170.26749551716574, 1.7608492503066453]}}, {"type": "Feature", "properties": {"norad_id": 41884, "name": "CYGFM05", "group": "weather", "lat": -34.82361965799015, "lon": -69.1820704682679, "alt_km": 421.1269309739846, "timestamp": "2025-12-15T22:44:28.563375+00:00", "meta": {"OBJECT_NAME": "CYGFM05", "OBJECT_ID": "2016-078A", "EPOCH": "2025-12-15T07:40:02.589888", "MEAN_MOTION": 15.47738137, "ECCENTRICITY": 0.00103864, "INCLINATION": 34.9605, "RA_OF_ASC_NODE": 30.2788, "ARG_OF_PERICENTER": 206.8653, "MEAN_ANOMALY": 153.1532, "EPHEMERIS_TYPE": 0, "CLASSIFICATION_TYPE": "U", "NORAD_CAT_ID": 41884, "ELEMENT_SET_NO": 999, "REV_AT_EPOCH": 50016, "BSTAR": 0.00027666083, "MEAN_MOTION_DOT": 0.0001478, "MEAN_MOTION_DDOT": 0}, "tle": {"line1": "1 41884U 16078A   25349.31947442  .00014780  00000+0  27666-3 0  9993", "line2": "2 41884  34.9605  30.2788 0010386 206.8653 153.1532 15.47738137500168"}}, "geometry": {"type": "Point", "coordinates": [-69.1820704682679, -34.82361965799015]}}, {"type": "Feature", "properties": {"norad_id": 41885, "name": "CYGFM04", "group": "weather", "lat": 2.0015098189759604, "lon": 177.98980794732918, "alt_km": 410.83204991828643, "timestamp": "2025-12-15T22:44:28.563387+00:00", "meta": {"OBJECT_NAME": "CYGFM04", "OBJECT_ID": "2016-078B", "EPOCH": "2025-12-15T08:04:33.091968", "MEAN_MOTION": 15.50474773, "ECCENTRICITY": 0.00096399, "INCLINATION": 34.9358, "RA_OF_ASC_NODE": 4.8693, "ARG_OF_PERICENTER": 232.6972, "MEAN_ANOMALY": 127.2872, "EPHEMERIS_TYPE": 0, "CLASSIFICATION_TYPE": "U", "NORAD_CAT_ID": 41885, "ELEMENT_SET_NO": 999, "REV_AT_EPOCH": 50034, "BSTAR": 0.00027270277, "MEAN_MOTION_DOT": 0.00016048, "MEAN_MOTION_DDOT": 0}, "tle": {"line1": "1 41885U 16078B   25349.33649412  .00016048  00000+0  27270-3 0  9992", "line2": "2 41885  34.9358   4.8693 0009639 232.6972 127.2872 15.50474773500342"}}, "geometry": {"type": "Point", "coordinates": [177.98980794732918, 2.0015098189759604]}}, {"type": "Feature", "properties": {"norad_id": 41886, "name": "CYGFM02", "group": "weather", "lat": -14.321689064445058, "lon": -159.4101502239391, "alt_km": 405.3158830942066, "timestamp": "2025-12-15T22:44:28.563398+00:00", "meta": {"OBJECT_NAME": "CYGFM02", "OBJECT_ID": "2016-078C", "EPOCH": "2025-12-15T07:57:51.276672", "MEAN_MOTION": 15.51862213, "ECCENTRICITY": 0.00113172, "INCLINATION": 34.9445, "RA_OF_ASC_NODE": 3.1924, "ARG_OF_PERICENTER": 232.5769, "MEAN_ANOMALY": 127.3924, "EPHEMERIS_TYPE": 0, "CLASSIFICATION_TYPE": "U", "NORAD_CAT_ID": 41886, "ELEMENT_SET_NO": 999, "REV_AT_EPOCH": 50047, "BSTAR": 0.00028118878, "MEAN_MOTION_DOT": 0.0001741, "MEAN_MOTION_DDOT": 0}, "tle": {"line1": "1 41886U 16078C   25349.33184348  .00017410  00000+0  28119-3 0  9992", "line2": "2 41886  34.9445   3.1924 0011317 232.5769 127.3924 15.51862213500472"}}, "geometry": {"type": "Point", "coordinates": [-159.4101502239391, -14.321689064445058]}}, {"type": "Feature", "properties": {"norad_id": 41887, "name": "CYGFM01", "group": "weather", "lat": -23.197160308094716, "lon": -9.358714052483098, "alt_km": 425.40088620357983, "timestamp": "2025-12-15T22:44:28.563410+00:00", "meta": {"OBJECT_NAME": "CYGFM01", "OBJECT_ID": "2016-078D", "EPOCH": "2025-12-15T07:27:14.631264", "MEAN_MOTION": 15.48320435, "ECCENTRICITY": 0.00099972, "INCLINATION": 34.9436, "RA_OF_ASC_NODE": 32.6678, "ARG_OF_PERICENTER": 199.042, "MEAN_ANOMALY": 160.9928, "EPHEMERIS_TYPE": 0, "CLASSIFICATION_TYPE": "U", "NORAD_CAT_ID": 41887, "ELEMENT_SET_NO": 999, "REV_AT_EPOCH": 50010, "BSTAR": 0.00027853993, "MEAN_MOTION_DOT": 0.00015187, "MEAN_MOTION_DDOT": 0}, "tle": {"line1": "1 41887U 16078D   25349.31058601  .00015187  00000+0  27854-3 0  9997", "line2": "2 41887  34.9436  32.6678 0009997 199.0420 160.9928 15.48320435500106"}}, "geometry": {"type": "Point", "coordinates": [-9.358714052483098, -23.197160308094716]}}, {"type": "Feature", "properties": {"norad_id": 41888, "name": "CYGFM08", "group": "weather", "lat": 10.681701725822943, "lon": 27.127538871144242, "alt_km": 422.42062270380757, "timestamp": "2025-12-15T22:44:28.563421+00:00", "meta": {"OBJECT_NAME": "CYGFM08", "OBJECT_ID": "2016-078E", "EPOCH": "2025-12-15T08:44:38.302944", "MEAN_MOTION": 15.49534048, "ECCENTRICITY": 0.00117711, "INCLINATION": 34.9468, "RA_OF_ASC_NODE": 15.2782, "ARG_OF_PERICENTER": 222.3292, "MEAN_ANOMALY": 137.6522, "EPHEMERIS_TYPE": 0, "CLASSIFICATION_TYPE": "U", "NORAD_CAT_ID": 41888, "ELEMENT_SET_NO": 999, "REV_AT_EPOCH": 50034, "BSTAR": 0.00028709421, "MEAN_MOTION_DOT": 0.00016356, "MEAN_MOTION_DDOT": 0}, "tle": {"line1": "1 41888U 16078E   25349.36433221  .00016356  00000+0  28709-3 0  9997", "line2": "2 41888  34.9468  15.2782 0011771 222.3292 137.6522 15.49534048500340"}}, "geometry": {"type": "Point", "coordinates": [27.127538871144242, 10.681701725822943]}}, {"type": "Feature", "properties": {"norad_id": 41890, "name": "CYGFM07", "group": "weather", "lat": 7.61568061229683, "lon": 11.45722671509509, "alt_km": 418.52661119487675, "timestamp": "2025-12-15T22:44:28.563432+00:00", "meta": {"OBJECT_NAME": "CYGFM07", "OBJECT_ID": "2016-078G", "EPOCH": "2025-12-15T08:46:22.668960", "MEAN_MOTION": 15.50118833, "ECCENTRICITY": 0.00100939, "INCLINATION": 34.9485, "RA_OF_ASC_NODE": 4.236, "ARG_OF_PERICENTER": 238.3569, "MEAN_ANOMALY": 121.6169, "EPHEMERIS_TYPE": 0, "CLASSIFICATION_TYPE": "U", "NORAD_CAT_ID": 41890, "ELEMENT_SET_NO": 999, "REV_AT_EPOCH": 50036, "BSTAR": 0.00028250995, "MEAN_MOTION_DOT": 0.0001642, "MEAN_MOTION_DDOT": 0}, "tle": {"line1": "1 41890U 16078G   25349.36554015  .00016420  00000+0  28251-3 0  9999", "line2": "2 41890  34.9485   4.2360 0010093 238.3569 121.6169 15.50118833500366"}}, "geometry": {"type": "Point", "coordinates": [11.45722671509509, 7.61568061229683]}}, {"type": "Feature", "properties": {"norad_id": 41891, "name": "CYGFM03", "group": "weather", "lat": -15.03061495038373, "lon": -155.04305485455765, "alt_km": 411.37988390341707, "timestamp": "2025-12-15T22:44:28.563443+00:00", "meta": {"OBJECT_NAME": "CYGFM03", "OBJECT_ID": "2016-078H", "EPOCH": "2025-12-15T07:56:27.845376", "MEAN_MOTION": 15.50015632, "ECCENTRICITY": 0.00094999, "INCLINATION": 34.9439, "RA_OF_ASC_NODE": 6.3837, "ARG_OF_PERICENTER": 225.9581, "MEAN_ANOMALY": 134.0359, "EPHEMERIS_TYPE": 0, "CLASSIFICATION_TYPE": "U", "NORAD_CAT_ID": 41891, "ELEMENT_SET_NO": 999, "REV_AT_EPOCH": 50033, "BSTAR": 0.00029283718, "MEAN_MOTION_DOT": 0.00016957, "MEAN_MOTION_DDOT": 0}, "tle": {"line1": "1 41891U 16078H   25349.33087784  .00016957  00000+0  29284-3 0  9993", "line2": "2 41891  34.9439   6.3837 0009499 225.9581 134.0359 15.50015632500331"}}, "geometry": {"type": "Point", "coordinates": [-155.04305485455765, -15.03061495038373]}}]}